[{"OBJECT_NAME":"YAM-7","OBJECT_ID":"2024-149AN","EPOCH":"2026-03-09T17:13:55.117920","MEAN_MOTION":15.30304554,"ECCENTRICITY":0.00019733,"INCLINATION":97.3828,"RA_OF_ASC_NODE":149.4631,"ARG_OF_PERICENTER":296.5121,"MEAN_ANOMALY":63.5918,"EPHEMERIS_TYPE":0,"CLASSIFICATION_TYPE":"U","NORAD_CAT_ID":60504,"ELEMENT_SET_NO":999,"REV_AT_EPOCH":8683,"BSTAR":0.00030984439,"MEAN_MOTION_DOT":9.009e-5,"MEAN_MOTION_DDOT":0},{"OBJECT_NAME":"STARLINK-34854","OBJECT_ID":"2025-189Q","EPOCH":"2026-03-09T15:45:56.909952","MEAN_MOTION":15.30209757,"ECCENTRICITY":0.00012288,"INCLINATION":53.1582,"RA_OF_ASC_NODE":206.7591,"ARG_OF_PERICENTER":92.5483,"MEAN_ANOMALY":267.5658,"EPHEMERIS_TYPE":0,"CLASSIFICATION_TYPE":"U","NORAD_CAT_ID":65337,"ELEMENT_SET_NO":999,"REV_AT_EPOCH":3104,"BSTAR":0.0010271719,"MEAN_MOTION_DOT":0.00030196,"MEAN_MOTION_DDOT":0}]
